GLOBALSTAR M075         
1 37192U 10054E   25303.98623215 -.00000082  00000+0  12030-3 0  9990
2 37192  51.9919 128.0579 0000932  92.4658  68.3234 12.62269400692991
GLOBALSTAR M073         
1 37193U 10054F   25303.75007425 -.00000103  00000+0  18860-5 0  9998
2 37193  52.0079  42.6998 0000523 131.5515  34.3264 12.62263627694959
GLOBALSTAR M083         
1 37739U 11033A   25304.29784414 -.00000091  00000+0  69905-4 0  9993
2 37739  51.9879 349.5769 0000331 135.1658 302.8299 12.62264017664043
GLOBALSTAR M088         
1 37740U 11033B   25304.19853211 -.00000094  00000+0  55040-4 0  9994
2 37740  52.0215 255.7522 0000687  63.1283  42.0385 12.62269377659579
GLOBALSTAR M091         
1 37741U 11033C   25303.96864610 -.00000094  00000+0  54835-4 0  9995
2 37741  51.9991 219.7556 0000837  80.4495 359.8994 12.62261188660333
GLOBALSTAR M085         
1 37742U 11033D   25303.96085200 -.00000090  00000+0  74569-4 0  9998
2 37742  52.0104 170.8720 0000994  94.0123  11.0177 12.62266392660843
GLOBALSTAR M081         
1 37743U 11033E   25303.65158765 -.00000094  00000+0  55830-4 0  9996
2 37743  51.9940 174.5106 0000790  86.9088 291.9771 12.62269811660953
GLOBALSTAR M089         
1 37744U 11033F   25303.95827013 -.00000081  00000+0  12968-3 0  9999
2 37744  51.9900 127.7770 0000845  77.5332  76.5149 12.62272267661839
